OBJECT_NAME,OBJECT_ID,EPOCH,MEAN_MOTION,ECCENTRICITY,INCLINATION,RA_OF_ASC_NODE,ARG_OF_PERICENTER,MEAN_ANOMALY,EPHEMERIS_TYPE,CLASSIFICATION_TYPE,NORAD_CAT_ID,ELEMENT_SET_NO,REV_AT_EPOCH,BSTAR,MEAN_MOTION_DOT,MEAN_MOTION_DDOT
SAR-LUPE 2,2007-030A,2026-06-11T06:38:42.897696,15.49031222,.00074366,98.1025,265.9821,144.5297,215.6447,0,U,31797,999,5602,.62085923E-3,.33659E-3,0
SAPPHIRE,2013-009C,2026-06-11T05:39:58.013568,14.35238830,.00099785,98.4259,341.8333,266.4921,93.5123,0,U,39088,999,69572,.47492973E-4,.93E-6,0
PRAETORIAN SDA_602,2025-203A,2026-06-11T02:20:16.163520,13.84342212,.00054582,81.3035,16.4105,201.4122,158.6807,0,U,65565,999,3785,.30713224E-4,.46E-6,0
PRAETORIAN SDA_603,2025-203B,2026-06-11T02:55:55.623648,13.83905157,.00090476,81.3038,16.2996,204.5703,155.5024,0,U,65566,999,3786,.17399351E-3,.205E-5,0
PRAETORIAN SDA_604,2025-203C,2026-06-11T01:34:44.020128,13.83047058,.00049453,81.3057,16.7550,209.7335,150.3541,0,U,65567,999,3783,.62889697E-4,.81E-6,0
PRAETORIAN SDA_605,2025-203D,2026-06-11T02:31:25.156992,13.83433784,.00077704,81.3022,16.3875,200.0026,160.0827,0,U,65568,999,3785,.34989011E-4,.5E-6,0
PRAETORIAN SDA_606,2025-203E,2026-06-11T02:06:07.083936,13.83406757,.00053845,81.3058,16.6230,198.3646,161.7317,0,U,65569,999,3784,.4137342E-4,.57E-6,0
PRAETORIAN SDA_607,2025-203F,2026-06-11T02:23:14.811072,13.84283861,.00082897,81.3041,16.2842,204.9622,155.1135,0,U,65570,999,3786,.12785682E-3,.155E-5,0
PRAETORIAN SDA_608,2025-203G,2026-06-11T01:47:44.532672,13.83816357,.00054688,81.3009,16.4667,208.6321,151.4536,0,U,65571,999,3784,.46283273E-4,.63E-6,0
PRAETORIAN SDA_609,2025-203H,2026-06-11T01:57:26.909280,13.84332891,.00064441,81.3059,16.4404,202.6078,157.4796,0,U,65572,999,3785,-.10282378E-1,-.11457E-3,0
PRAETORIAN SDA_610,2025-203J,2026-06-11T03:02:55.595040,13.83851491,.00061359,81.3011,16.3765,205.7091,154.3761,0,U,65573,999,3785,.37394694E-4,.53E-6,0
PRAETORIAN SDA_611,2025-203K,2026-06-11T03:00:37.814688,13.83308338,.00050684,81.3017,16.5387,212.4990,147.5855,0,U,65574,999,3784,-.37878855E-4,-.3E-6,0
PRAETORIAN SDA_612,2025-203L,2026-06-11T02:56:34.000800,13.85038427,.00087787,81.3032,16.1426,203.9101,156.1650,0,U,65575,999,3787,.12213388E-3,.15E-5,0
PRAETORIAN SDA_613,2025-203M,2026-06-11T03:06:54.754560,13.82764620,.00052337,81.3003,16.5270,201.2008,158.8932,0,U,65576,999,3784,.39106284E-4,.54E-6,0
PRAETORIAN SDA_614,2025-203N,2026-06-11T02:39:20.161728,13.84777840,.00066879,81.3018,16.2300,200.8699,159.2186,0,U,65577,999,3787,.31814442E-4,.48E-6,0
PRAETORIAN SDA_615,2025-203P,2026-06-11T02:03:53.576928,13.84436039,.00085303,81.3026,16.2125,203.0112,157.0664,0,U,65578,999,3786,.157879E-3,.189E-5,0
PRAETORIAN SDA_616,2025-203Q,2026-06-11T02:59:14.199360,13.83267279,.00049712,81.3064,16.6804,210.0862,150.0009,0,U,65579,999,3784,.14468537E-3,.171E-5,0
PRAETORIAN SDA_617,2025-203R,2026-06-11T01:45:26.166528,13.83149911,.00069344,81.3040,16.5600,201.3306,158.7562,0,U,65580,999,3784,.26096176E-4,.4E-6,0
PRAETORIAN SDA_618,2025-203S,2026-06-11T03:00:32.256576,13.84668975,.00093152,81.3023,16.1080,204.9071,155.1638,0,U,65581,999,3787,.13502923E-3,.164E-5,0
PRAETORIAN SDA_619,2025-203T,2026-06-11T02:02:44.408544,13.83805213,.00077155,81.3048,16.4331,202.9628,157.1185,0,U,65582,999,3848,.13021856E-3,.156E-5,0
PRAETORIAN SDA_620,2025-203U,2026-06-11T02:41:51.285696,13.83617907,.00072046,81.3031,16.4279,198.3858,161.7039,0,U,65583,999,3785,.13921E-3,.165E-5,0
PRAETORIAN SDA_621,2025-203V,2026-06-11T02:05:15.923040,13.83800783,.0007027,81.3025,16.3716,195.6955,164.3985,0,U,65584,999,3785,.41763004E-4,.58E-6,0
PRAETORIAN SDA_601,2025-203W,2026-06-10T23:34:47.347680,13.83166962,.00049635,81.3048,16.7577,214.1321,145.9517,0,U,65585,999,3782,.28252723E-3,.321E-5,0
