SAR-LUPE 2              
1 31797U 07030A   26162.27688539  .00033659  00000+0  62086-3 0  9992
2 31797  98.1025 265.9821 0007436 144.5297 215.6447 15.49031222 56020
SAPPHIRE                
1 39088U 13009C   26162.23608812  .00000093  00000+0  47493-4 0  9990
2 39088  98.4259 341.8333 0009978 266.4921  93.5123 14.35238830695724
PRAETORIAN SDA_602      
1 65565U 25203A   26162.09740930  .00000046  00000+0  30713-4 0  9995
2 65565  81.3035  16.4105 0005458 201.4122 158.6807 13.84342212 37858
PRAETORIAN SDA_603      
1 65566U 25203B   26162.12217157  .00000205  00000+0  17399-3 0  9991
2 65566  81.3038  16.2996 0009047 204.5703 155.5024 13.83905157 37865
PRAETORIAN SDA_604      
1 65567U 25203C   26162.06578727  .00000081  00000+0  62890-4 0  9997
2 65567  81.3057  16.7550 0004945 209.7335 150.3541 13.83047058 37839
PRAETORIAN SDA_605      
1 65568U 25203D   26162.10515228  .00000050  00000+0  34989-4 0  9994
2 65568  81.3022  16.3875 0007770 200.0026 160.0827 13.83433784 37850
PRAETORIAN SDA_606      
1 65569U 25203E   26162.08758199  .00000057  00000+0  41373-4 0  9990
2 65569  81.3058  16.6230 0005384 198.3646 161.7317 13.83406757 37845
PRAETORIAN SDA_607      
1 65570U 25203F   26162.09947698  .00000155  00000+0  12786-3 0  9991
2 65570  81.3041  16.2842 0008289 204.9622 155.1135 13.84283861 37866
PRAETORIAN SDA_608      
1 65571U 25203G   26162.07482098  .00000063  00000+0  46283-4 0  9996
2 65571  81.3009  16.4667 0005468 208.6321 151.4536 13.83816357 37844
PRAETORIAN SDA_609      
1 65572U 25203H   26162.08156145 -.00011457  00000+0 -10282-1 0  9997
2 65572  81.3059  16.4404 0006444 202.6078 157.4796 13.84332891 37859
PRAETORIAN SDA_610      
1 65573U 25203J   26162.12703235  .00000053  00000+0  37395-4 0  9996
2 65573  81.3011  16.3765 0006135 205.7091 154.3761 13.83851491 37852
PRAETORIAN SDA_611      
1 65574U 25203K   26162.12543767 -.00000030  00000+0 -37879-4 0  9993
2 65574  81.3017  16.5387 0005068 212.4990 147.5855 13.83308338 37842
PRAETORIAN SDA_612      
1 65575U 25203L   26162.12261575  .00000150  00000+0  12213-3 0  9993
2 65575  81.3032  16.1426 0008778 203.9101 156.1650 13.85038427 37873
PRAETORIAN SDA_613      
1 65576U 25203M   26162.12980040  .00000054  00000+0  39106-4 0  9993
2 65576  81.3003  16.5270 0005233 201.2008 158.8932 13.82764620 37840
PRAETORIAN SDA_614      
1 65577U 25203N   26162.11065002  .00000048  00000+0  31814-4 0  9996
2 65577  81.3018  16.2300 0006687 200.8699 159.2186 13.84777840 37872
PRAETORIAN SDA_615      
1 65578U 25203P   26162.08603677  .00000189  00000+0  15788-3 0  9996
2 65578  81.3026  16.2125 0008530 203.0112 157.0664 13.84436039 37869
PRAETORIAN SDA_616      
1 65579U 25203Q   26162.12446990  .00000171  00000+0  14469-3 0  9991
2 65579  81.3064  16.6804 0004971 210.0862 150.0009 13.83267279 37846
PRAETORIAN SDA_617      
1 65580U 25203R   26162.07321952  .00000040  00000+0  26096-4 0  9992
2 65580  81.3040  16.5600 0006934 201.3306 158.7562 13.83149911 37843
PRAETORIAN SDA_618      
1 65581U 25203S   26162.12537334  .00000164  00000+0  13503-3 0  9997
2 65581  81.3023  16.1080 0009315 204.9071 155.1638 13.84668975 37872
PRAETORIAN SDA_619      
1 65582U 25203T   26162.08523621  .00000156  00000+0  13022-3 0  9994
2 65582  81.3048  16.4331 0007715 202.9628 157.1185 13.83805213 38484
PRAETORIAN SDA_620      
1 65583U 25203U   26162.11239914  .00000165  00000+0  13921-3 0  9996
2 65583  81.3031  16.4279 0007204 198.3858 161.7039 13.83617907 37854
PRAETORIAN SDA_621      
1 65584U 25203V   26162.08698985  .00000058  00000+0  41763-4 0  9997
2 65584  81.3025  16.3716 0007027 195.6955 164.3985 13.83800783 37859
PRAETORIAN SDA_601      
1 65585U 25203W   26161.98249245  .00000321  00000+0  28253-3 0  9998
2 65585  81.3048  16.7577 0004963 214.1321 145.9517 13.83166962 37821
